ONEWEB-0338             
1 49204U 21083U   24007.30833928  .00000038  00000+0  62213-4 0  9990
2 49204  87.9195  92.0005 0002264 112.1959 247.9415 13.20771535120388
ONEWEB-0339             
1 49205U 21083V   24007.39127090 -.00000211  00000+0 -61295-3 0  9999
2 49205  87.9007 137.7290 0001687  98.9404 261.1916 13.13470768115124
ONEWEB-0340             
1 49206U 21083W   24006.90241909  .00000054  00000+0  10376-3 0  9999
2 49206  87.9230 152.9860 0001479  93.2339 266.8962 13.18684191113661
ONEWEB-0341             
1 49207U 21083X   24007.44146774  .00000077  00000+0  16331-3 0  9996
2 49207  87.9235 152.8945 0002153  84.1170 276.0207 13.18686293113752
ONEWEB-0342             
1 49208U 21083Y   24007.16313457  .00000091  00000+0  19295-3 0  9998
2 49208  87.9187  92.0526 0002013 111.3856 248.7492 13.20770550120335
ONEWEB-0343             
1 49209U 21083Z   24006.90559579  .00000023  00000+0  24797-4 0  9996
2 49209  87.9222 153.0181 0002215  90.3974 269.7412 13.18679606113730
ONEWEB-0344             
1 49210U 21083AA  24007.43412163 -.00008146  00000+0 -22349-1 0  9998
2 49210  87.9016 137.7333 0001964 106.7497 253.3847 13.13510835115133
ONEWEB-0345             
1 49211U 21083AB  24006.91833318 -.00000165  00000+0 -48770-3 0  9991
2 49211  87.9009 137.8158 0001652  82.2016 277.9300 13.13469105115073
